{
  "type": "FeatureCollection",
  "features": [
    {
      "type": "Feature",
      "properties": {
        "norad_id": 35165,
        "name": "FENGYUN 1C DEB",
        "group": "fengyun-1c-debris",
        "lat": 29.051817007526214,
        "lon": -105.4224156057071,
        "alt_km": 770.5181749503818,
        "timestamp": "2025-12-03T22:42:32.921536+00:00",
        "meta_object_name": "FENGYUN 1C DEB",
        "meta_object_id": "1999-025DMV",
        "meta_epoch": "2025-11-30T05:14:00.190464",
        "meta_mean_motion": 14.33570134,
        "meta_eccentricity": 0.00218891,
        "meta_inclination": 98.8778,
        "meta_ra_of_asc_node": 65.7738,
        "meta_arg_of_pericenter": 100.7376,
        "meta_mean_anomaly": 259.6273,
        "meta_ephemeris_type": 0,
        "meta_classification_type": "U",
        "meta_norad_cat_id": 35165,
        "meta_element_set_no": 999,
        "meta_rev_at_epoch": 89541,
        "meta_bstar": 0.0024382815,
        "meta_mean_motion_dot": 6.727e-05,
        "meta_mean_motion_ddot": 0,
        "tle_line1": "1 35165U 99025DMV 25334.21805776  .00006727  00000+0  24383-2 0  9991",
        "tle_line2": "2 35165  98.8778  65.7738 0021889 100.7376 259.6273 14.33570134895419"
      },
      "geometry": {
        "type": "Point",
        "coordinates": [
          -105.4224156057071,
          29.051817007526214
        ]
      }
    },
    {
      "type": "Feature",
      "properties": {
        "norad_id": 35167,
        "name": "FENGYUN 1C DEB",
        "group": "fengyun-1c-debris",
        "lat": -1.6214464802244222,
        "lon": -28.378533009470136,
        "alt_km": 890.1163312236949,
        "timestamp": "2025-12-03T22:42:32.921544+00:00",
        "meta_object_name": "FENGYUN 1C DEB",
        "meta_object_id": "1999-025DMX",
        "meta_epoch": "2025-11-27T17:22:23.212128",
        "meta_mean_motion": 14.31084388,
        "meta_eccentricity": 0.02289339,
        "meta_inclination": 98.4496,
        "meta_ra_of_asc_node": 325.3238,
        "meta_arg_of_pericenter": 248.7447,
        "meta_mean_anomaly": 108.915,
        "meta_ephemeris_type": 0,
        "meta_classification_type": "U",
        "meta_norad_cat_id": 35167,
        "meta_element_set_no": 999,
        "meta_rev_at_epoch": 69805,
        "meta_bstar": 0.00055665644,
        "meta_mean_motion_dot": 1.904e-05,
        "meta_mean_motion_ddot": 0,
        "tle_line1": "1 35167U 99025DMX 25331.72387977  .00001904  00000+0  55666-3 0  9995",
        "tle_line2": "2 35167  98.4496 325.3238 0228933 248.7447 108.9150 14.31084388698055"
      },
      "geometry": {
        "type": "Point",
        "coordinates": [
          -28.378533009470136,
          -1.6214464802244222
        ]
      }
    },
    {
      "type": "Feature",
      "properties": {
        "norad_id": 35169,
        "name": "FENGYUN 1C DEB",
        "group": "fengyun-1c-debris",
        "lat": -74.22996192604681,
        "lon": 5.93762672097804,
        "alt_km": 762.3817984695788,
        "timestamp": "2025-12-03T22:42:32.921553+00:00",
        "meta_object_name": "FENGYUN 1C DEB",
        "meta_object_id": "1999-025DMZ",
        "meta_epoch": "2025-12-01T21:48:02.674656",
        "meta_mean_motion": 14.5857224,
        "meta_eccentricity": 0.01524132,
        "meta_inclination": 99.1297,
        "meta_ra_of_asc_node": 218.4106,
        "meta_arg_of_pericenter": 140.367,
        "meta_mean_anomaly": 220.8786,
        "meta_ephemeris_type": 0,
        "meta_classification_type": "U",
        "meta_norad_cat_id": 35169,
        "meta_element_set_no": 999,
        "meta_rev_at_epoch": 65622,
        "meta_bstar": 0.00056882419,
        "meta_mean_motion_dot": 3.046e-05,
        "meta_mean_motion_ddot": 0,
        "tle_line1": "1 35169U 99025DMZ 25335.90836429  .00003046  00000+0  56882-3 0  9992",
        "tle_line2": "2 35169  99.1297 218.4106 0152413 140.3670 220.8786 14.58572240656224"
      },
      "geometry": {
        "type": "Point",
        "coordinates": [
          5.93762672097804,
          -74.22996192604681
        ]
      }
    },
    {
      "type": "Feature",
      "properties": {
        "norad_id": 35171,
        "name": "FENGYUN 1C DEB",
        "group": "fengyun-1c-debris",
        "lat": 6.160526519694535,
        "lon": -49.506623500994976,
        "alt_km": 1012.0088874426956,
        "timestamp": "2025-12-03T22:42:32.921562+00:00",
        "meta_object_name": "FENGYUN 1C DEB",
        "meta_object_id": "1999-025DNB",
        "meta_epoch": "2025-12-02T16:36:38.601216",
        "meta_mean_motion": 13.94893495,
        "meta_eccentricity": 0.01374906,
        "meta_inclination": 99.0081,
        "meta_ra_of_asc_node": 128.2878,
        "meta_arg_of_pericenter": 346.4429,
        "meta_mean_anomaly": 13.3054,
        "meta_ephemeris_type": 0,
        "meta_classification_type": "U",
        "meta_norad_cat_id": 35171,
        "meta_element_set_no": 999,
        "meta_rev_at_epoch": 88418,
        "meta_bstar": 0.0019263576,
        "meta_mean_motion_dot": 2.757e-05,
        "meta_mean_motion_ddot": 0,
        "tle_line1": "1 35171U 99025DNB 25336.69211344  .00002757  00000+0  19264-2 0  9995",
        "tle_line2": "2 35171  99.0081 128.2878 0137490 346.4429  13.3054 13.94893495884188"
      },
      "geometry": {
        "type": "Point",
        "coordinates": [
          -49.506623500994976,
          6.160526519694535
        ]
      }
    },
    {
      "type": "Feature",
      "properties": {
        "norad_id": 35173,
        "name": "FENGYUN 1C DEB",
        "group": "fengyun-1c-debris",
        "lat": 29.264065759935825,
        "lon": -124.66312722350557,
        "alt_km": 1066.9067707010272,
        "timestamp": "2025-12-03T22:42:32.921571+00:00",
        "meta_object_name": "FENGYUN 1C DEB",
        "meta_object_id": "1999-025DND",
        "meta_epoch": "2025-11-30T23:52:38.856288",
        "meta_mean_motion": 13.37232995,
        "meta_eccentricity": 0.04900671,
        "meta_inclination": 99.7863,
        "meta_ra_of_asc_node": 46.9395,
        "meta_arg_of_pericenter": 242.1429,
        "meta_mean_anomaly": 112.9236,
        "meta_ephemeris_type": 0,
        "meta_classification_type": "U",
        "meta_norad_cat_id": 35173,
        "meta_element_set_no": 999,
        "meta_rev_at_epoch": 65672,
        "meta_bstar": 0.0023582521,
        "meta_mean_motion_dot": 2.416e-05,
        "meta_mean_motion_ddot": 0,
        "tle_line1": "1 35173U 99025DND 25334.99489417  .00002416  00000+0  23583-2 0  9997",
        "tle_line2": "2 35173  99.7863  46.9395 0490067 242.1429 112.9236 13.37232995656723"
      },
      "geometry": {
        "type": "Point",
        "coordinates": [
          -124.66312722350557,
          29.264065759935825
        ]
      }
    },
    {
      "type": "Feature",
      "properties": {
        "norad_id": 35174,
        "name": "FENGYUN 1C DEB",
        "group": "fengyun-1c-debris",
        "lat": -59.153955708224046,
        "lon": -33.74034718144892,
        "alt_km": 574.4617235754204,
        "timestamp": "2025-12-03T22:42:32.921580+00:00",
        "meta_object_name": "FENGYUN 1C DEB",
        "meta_object_id": "1999-025DNE",
        "meta_epoch": "2025-11-20T15:53:09.659040",
        "meta_mean_motion": 14.97261972,
        "meta_eccentricity": 0.01569814,
        "meta_inclination": 98.9653,
        "meta_ra_of_asc_node": 295.6935,
        "meta_arg_of_pericenter": 254.7539,
        "meta_mean_anomaly": 103.6277,
        "meta_ephemeris_type": 0,
        "meta_classification_type": "U",
        "meta_norad_cat_id": 35174,
        "meta_element_set_no": 999,
        "meta_rev_at_epoch": 89835,
        "meta_bstar": 0.0019136785,
        "meta_mean_motion_dot": 0.00028569,
        "meta_mean_motion_ddot": 0,
        "tle_line1": "1 35174U 99025DNE 25324.66191735  .00028569  00000+0  19137-2 0  9991",
        "tle_line2": "2 35174  98.9653 295.6935 0156981 254.7539 103.6277 14.97261972898353"
      },
      "geometry": {
        "type": "Point",
        "coordinates": [
          -33.74034718144892,
          -59.153955708224046
        ]
      }
    },
    {
      "type": "Feature",
      "properties": {
        "norad_id": 35175,
        "name": "FENGYUN 1C DEB",
        "group": "fengyun-1c-debris",
        "lat": 25.348323522333132,
        "lon": -17.55376126610246,
        "alt_km": 812.6104611490773,
        "timestamp": "2025-12-03T22:42:32.921589+00:00",
        "meta_object_name": "FENGYUN 1C DEB",
        "meta_object_id": "1999-025DNF",
        "meta_epoch": "2025-11-30T06:43:52.665888",
        "meta_mean_motion": 14.21268551,
        "meta_eccentricity": 0.00576825,
        "meta_inclination": 98.5751,
        "meta_ra_of_asc_node": 342.9857,
        "meta_arg_of_pericenter": 316.5813,
        "meta_mean_anomaly": 43.0829,
        "meta_ephemeris_type": 0,
        "meta_classification_type": "U",
        "meta_norad_cat_id": 35175,
        "meta_element_set_no": 999,
        "meta_rev_at_epoch": 61058,
        "meta_bstar": 0.0004121206,
        "meta_mean_motion_dot": 8.7e-06,
        "meta_mean_motion_ddot": 0,
        "tle_line1": "1 35175U 99025DNF 25334.28047067  .00000870  00000+0  41212-3 0  9994",
        "tle_line2": "2 35175  98.5751 342.9857 0057682 316.5813  43.0829 14.21268551610582"
      },
      "geometry": {
        "type": "Point",
        "coordinates": [
          -17.55376126610246,
          25.348323522333132
        ]
      }
    }
  ]
}